{
  "type": "FeatureCollection",
  "features": [
    {
      "type": "Feature",
      "properties": {
        "norad_id": 66174,
        "name": "HTV-X1",
        "group": "stations",
        "lat": -34.901484588142864,
        "lon": 43.52035960490978,
        "alt_km": 419.0560964934466,
        "timestamp": "2025-12-25T22:42:15.744338+00:00",
        "meta_object_name": "HTV-X1",
        "meta_object_id": "2025-241A",
        "meta_epoch": "2025-12-25T13:37:14.375136",
        "meta_mean_motion": 15.49813539,
        "meta_eccentricity": 0.00032241,
        "meta_inclination": 51.6318,
        "meta_ra_of_asc_node": 78.9495,
        "meta_arg_of_pericenter": 299.9641,
        "meta_mean_anomaly": 60.1027,
        "meta_ephemeris_type": 0,
        "meta_classification_type": "U",
        "meta_norad_cat_id": 66174,
        "meta_element_set_no": 999,
        "meta_rev_at_epoch": 51,
        "meta_bstar": 0.0002559065,
        "meta_mean_motion_dot": 0.00014081,
        "meta_mean_motion_ddot": 0,
        "tle_line1": "1 66174U 25241A   25359.56752749  .00014081  00000+0  25591-3 0  9995",
        "tle_line2": "2 66174  51.6318  78.9495 0003224 299.9641  60.1027 15.49813539   513"
      },
      "geometry": {
        "type": "Point",
        "coordinates": [
          43.52035960490978,
          -34.901484588142864
        ]
      }
    },
    {
      "type": "Feature",
      "properties": {
        "norad_id": 66515,
        "name": "SZ-21 MODULE",
        "group": "stations",
        "lat": -39.26787500688705,
        "lon": -132.29982065308354,
        "alt_km": 379.3674585157296,
        "timestamp": "2025-12-25T22:42:15.744348+00:00",
        "meta_object_name": "SZ-21 MODULE",
        "meta_object_id": "2025-246C",
        "meta_epoch": "2025-12-25T04:36:53.601984",
        "meta_mean_motion": 15.63137537,
        "meta_eccentricity": 0.0004589,
        "meta_inclination": 41.4767,
        "meta_ra_of_asc_node": 300.0489,
        "meta_arg_of_pericenter": 327.9877,
        "meta_mean_anomaly": 32.0683,
        "meta_ephemeris_type": 0,
        "meta_classification_type": "U",
        "meta_norad_cat_id": 66515,
        "meta_element_set_no": 999,
        "meta_rev_at_epoch": 639,
        "meta_bstar": 0.00031272,
        "meta_mean_motion_dot": 0.00029146,
        "meta_mean_motion_ddot": 0,
        "tle_line1": "1 66515U 25246C   25359.19228706  .00029146  00000+0  31272-3 0  9990",
        "tle_line2": "2 66515  41.4767 300.0489 0004589 327.9877  32.0683 15.63137537  6398"
      },
      "geometry": {
        "type": "Point",
        "coordinates": [
          -132.29982065308354,
          -39.26787500688705
        ]
      }
    },
    {
      "type": "Feature",
      "properties": {
        "norad_id": 66645,
        "name": "SHENZHOU-22",
        "group": "stations",
        "lat": -24.084208168954305,
        "lon": 146.90762917840684,
        "alt_km": 388.8503647295729,
        "timestamp": "2025-12-25T22:42:15.744357+00:00",
        "meta_object_name": "SHENZHOU-22",
        "meta_object_id": "2025-272A",
        "meta_epoch": "2025-12-25T12:33:15.160896",
        "meta_mean_motion": 15.59679589,
        "meta_eccentricity": 0.00083772,
        "meta_inclination": 41.4683,
        "meta_ra_of_asc_node": 299.0697,
        "meta_arg_of_pericenter": 143.3414,
        "meta_mean_anomaly": 216.7999,
        "meta_ephemeris_type": 0,
        "meta_classification_type": "U",
        "meta_norad_cat_id": 66645,
        "meta_element_set_no": 999,
        "meta_rev_at_epoch": 26598,
        "meta_bstar": 0.00022529008,
        "meta_mean_motion_dot": 0.00018242,
        "meta_mean_motion_ddot": 0,
        "tle_line1": "1 66645U 25272A   25359.52309214  .00018242  00000+0  22529-3 0  9994",
        "tle_line2": "2 66645  41.4683 299.0697 0008377 143.3414 216.7999 15.59679589265989"
      },
      "geometry": {
        "type": "Point",
        "coordinates": [
          146.90762917840684,
          -24.084208168954305
        ]
      }
    },
    {
      "type": "Feature",
      "properties": {
        "norad_id": 66664,
        "name": "SOYUZ-MS 28",
        "group": "stations",
        "lat": -34.90148336483632,
        "lon": 43.520361332218876,
        "alt_km": 419.0560964419392,
        "timestamp": "2025-12-25T22:42:15.744367+00:00",
        "meta_object_name": "SOYUZ-MS 28",
        "meta_object_id": "2025-275A",
        "meta_epoch": "2025-12-25T13:37:14.375136",
        "meta_mean_motion": 15.49813539,
        "meta_eccentricity": 0.0003224,
        "meta_inclination": 51.6318,
        "meta_ra_of_asc_node": 78.9495,
        "meta_arg_of_pericenter": 299.9641,
        "meta_mean_anomaly": 60.1027,
        "meta_ephemeris_type": 0,
        "meta_classification_type": "U",
        "meta_norad_cat_id": 66664,
        "meta_element_set_no": 999,
        "meta_rev_at_epoch": 443,
        "meta_bstar": 0.00025591,
        "meta_mean_motion_dot": 0.00014081,
        "meta_mean_motion_ddot": 0,
        "tle_line1": "1 66664U 25275A   25359.56752749  .00014081  00000+0  25591-3 0  9996",
        "tle_line2": "2 66664  51.6318  78.9495 0003224 299.9641  60.1027 15.49813539  4432"
      },
      "geometry": {
        "type": "Point",
        "coordinates": [
          43.520361332218876,
          -34.90148336483632
        ]
      }
    },
    {
      "type": "Feature",
      "properties": {
        "norad_id": 66906,
        "name": "1998-067XS",
        "group": "stations",
        "lat": 31.57598459119649,
        "lon": 106.02968672616657,
        "alt_km": 410.17116304153114,
        "timestamp": "2025-12-25T22:42:15.744377+00:00",
        "meta_object_name": "1998-067XS",
        "meta_object_id": "1998-067XS",
        "meta_epoch": "2025-12-25T11:42:06.367680",
        "meta_mean_motion": 15.51255627,
        "meta_eccentricity": 0.0002728,
        "meta_inclination": 51.6324,
        "meta_ra_of_asc_node": 79.1676,
        "meta_arg_of_pericenter": 267.8022,
        "meta_mean_anomaly": 92.2655,
        "meta_ephemeris_type": 0,
        "meta_classification_type": "U",
        "meta_norad_cat_id": 66906,
        "meta_element_set_no": 999,
        "meta_rev_at_epoch": 359,
        "meta_bstar": 0.00047654,
        "meta_mean_motion_dot": 0.00028077,
        "meta_mean_motion_ddot": 0,
        "tle_line1": "1 66906U 98067XS  25359.48757370  .00028077  00000+0  47654-3 0  9994",
        "tle_line2": "2 66906  51.6324  79.1676 0002728 267.8022  92.2655 15.51255627  3597"
      },
      "geometry": {
        "type": "Point",
        "coordinates": [
          106.02968672616657,
          31.57598459119649
        ]
      }
    },
    {
      "type": "Feature",
      "properties": {
        "norad_id": 66907,
        "name": "1998-067XT",
        "group": "stations",
        "lat": 42.313039424079356,
        "lon": -149.43303006280573,
        "alt_km": 404.58536720002303,
        "timestamp": "2025-12-25T22:42:15.744387+00:00",
        "meta_object_name": "1998-067XT",
        "meta_object_id": "1998-067XT",
        "meta_epoch": "2025-12-24T10:39:56.166048",
        "meta_mean_motion": 15.52879993,
        "meta_eccentricity": 0.00038856,
        "meta_inclination": 51.6313,
        "meta_ra_of_asc_node": 84.2012,
        "meta_arg_of_pericenter": 298.2919,
        "meta_mean_anomaly": 61.7678,
        "meta_ephemeris_type": 0,
        "meta_classification_type": "U",
        "meta_norad_cat_id": 66907,
        "meta_element_set_no": 999,
        "meta_rev_at_epoch": 343,
        "meta_bstar": 0.0010726177,
        "meta_mean_motion_dot": 0.00067981,
        "meta_mean_motion_ddot": 0,
        "tle_line1": "1 66907U 98067XT  25358.44440007  .00067981  00000+0  10726-2 0  9992",
        "tle_line2": "2 66907  51.6313  84.2012 0003885 298.2919  61.7678 15.52879993  3433"
      },
      "geometry": {
        "type": "Point",
        "coordinates": [
          -149.43303006280573,
          42.313039424079356
        ]
      }
    },
    {
      "type": "Feature",
      "properties": {
        "norad_id": 66908,
        "name": "1998-067XU",
        "group": "stations",
        "lat": 38.64152888949552,
        "lon": -142.58968125553739,
        "alt_km": 404.8551771969587,
        "timestamp": "2025-12-25T22:42:15.744396+00:00",
        "meta_object_name": "1998-067XU",
        "meta_object_id": "1998-067XU",
        "meta_epoch": "2025-12-24T10:38:25.805472",
        "meta_mean_motion": 15.52977314,
        "meta_eccentricity": 0.00038638,
        "meta_inclination": 51.6323,
        "meta_ra_of_asc_node": 84.1936,
        "meta_arg_of_pericenter": 296.7785,
        "meta_mean_anomaly": 63.2809,
        "meta_ephemeris_type": 0,
        "meta_classification_type": "U",
        "meta_norad_cat_id": 66908,
        "meta_element_set_no": 999,
        "meta_rev_at_epoch": 343,
        "meta_bstar": 0.0010585814,
        "meta_mean_motion_dot": 0.00067317,
        "meta_mean_motion_ddot": 0,
        "tle_line1": "1 66908U 98067XU  25358.44335423  .00067317  00000+0  10586-2 0  9995",
        "tle_line2": "2 66908  51.6323  84.1936 0003863 296.7785  63.2809 15.52977314  3438"
      },
      "geometry": {
        "type": "Point",
        "coordinates": [
          -142.58968125553739,
          38.64152888949552
        ]
      }
    }
  ]
}